OBJECT_NAME,OBJECT_ID,EPOCH,MEAN_MOTION,ECCENTRICITY,INCLINATION,RA_OF_ASC_NODE,ARG_OF_PERICENTER,MEAN_ANOMALY,EPHEMERIS_TYPE,CLASSIFICATION_TYPE,NORAD_CAT_ID,ELEMENT_SET_NO,REV_AT_EPOCH,BSTAR,MEAN_MOTION_DOT,MEAN_MOTION_DDOT
STARLINK-37818,2026-122E,2026-06-25T06:00:02.000160,15.49330699,.00008333,97.2850,205.9308,81.7637,10.3551,0,U,69333,999,464,-.56450003E-2,-.297272E-2,0
STARLINK-37868,2026-122F,2026-06-25T06:00:02.000160,15.49159809,.00019971,97.2851,206.0069,78.5003,196.9217,0,U,69334,999,464,-.57968442E-4,-.3239E-4,0
STARLINK-37877,2026-122G,2026-06-25T06:00:02.000160,15.49159016,.00012761,97.2853,205.8734,92.9539,223.3335,0,U,69335,999,464,.37636207E-3,.2041E-3,0
STARLINK-37791,2026-122H,2026-06-25T06:00:02.000160,15.49144957,.00016351,97.2850,205.9527,92.7846,49.3753,0,U,69336,999,464,.28666985E-3,.15508E-3,0
STARLINK-37765,2026-122J,2026-06-25T06:00:02.000160,15.49362210,.00011895,97.2850,206.0645,83.5253,316.6079,0,U,69337,999,469,-.53710603E-1,-.2594903E-1,0
STARLINK-37788,2026-122K,2026-06-25T06:00:02.000160,15.49159059,.00005626,97.2854,205.8683,86.9110,218.6310,0,U,69338,999,464,-.19979939E-4,-.1176E-4,0
STARLINK-37743,2026-122L,2026-06-25T06:00:02.000160,15.49162804,.00008928,97.2853,205.9390,100.3943,13.7001,0,U,69339,999,464,-.10493415E-3,-.5788E-4,0
STARLINK-37780,2026-122M,2026-06-25T06:00:02.000160,15.49160571,.00013576,97.2851,205.9876,88.2957,137.9594,0,U,69340,999,469,-.18751424E-3,-.10265E-3,0
STARLINK-37781,2026-122N,2026-06-25T06:00:02.000160,15.49162198,.00007538,97.2856,205.8651,97.8735,201.1532,0,U,69341,999,464,.13136788E-3,.7054E-4,0
STARLINK-37782,2026-122P,2026-06-25T06:00:02.000160,15.49171738,.0001441,97.2848,206.0383,67.7179,273.7595,0,U,69342,999,464,.13017716E-3,.6992E-4,0
STARLINK-37776,2026-122Q,2026-06-25T06:00:02.000160,15.49193969,.00007317,97.2849,206.0313,110.5800,213.3698,0,U,69343,999,464,.35516488E-3,.19276E-3,0
STARLINK-37786,2026-122R,2026-06-25T06:00:02.000160,15.49168934,.0001139,97.2848,205.9561,89.8355,59.0455,0,U,69344,999,464,.4496484E-4,.2354E-4,0
STARLINK-37785,2026-122S,2026-06-25T06:00:02.000160,15.49163036,.00009976,97.2853,206.0360,54.5268,279.7671,0,U,69345,999,464,.50350124E-3,.27363E-3,0
STARLINK-37773,2026-122T,2026-06-25T06:00:02.000160,15.49304103,.00015807,97.2849,205.9862,108.1422,113.1180,0,U,69346,999,469,-.39451779E-2,-.209897E-2,0
STARLINK-37744,2026-122U,2026-06-25T06:00:02.000160,15.49162868,.00004772,97.2853,205.8762,88.2667,233.4287,0,U,69347,999,464,.21790107E-3,.11767E-3,0
STARLINK-37775,2026-122V,2026-06-25T06:00:02.000160,15.49169096,.00013844,97.2849,205.9871,95.5627,127.6704,0,U,69348,999,464,-.70677187E-4,-.393E-4,0
STARLINK-37777,2026-122W,2026-06-25T06:00:02.000160,15.49168859,.00010053,97.2850,205.9894,90.3956,138.3413,0,U,69349,999,464,-.52486567E-4,-.2942E-4,0
STARLINK-37779,2026-122X,2026-06-25T06:00:02.000160,15.49160557,.00012674,97.2851,206.0253,83.4465,229.5084,0,U,69350,999,464,-.37813871E-4,-.2144E-4,0
STARLINK-37549,2026-122Y,2026-06-25T06:00:02.000160,15.49128328,.00015222,97.2854,205.9314,95.3145,353.5376,0,U,69351,999,464,.36502004E-3,.1977E-3,0
STARLINK-37778,2026-122Z,2026-06-25T06:00:02.000160,15.49158227,.00012264,97.2854,205.9497,88.8190,44.3034,0,U,69352,999,464,.28758978E-3,.15565E-3,0
STARLINK-37651,2026-123A,2026-06-25T04:49:24.536352,15.80945945,.00013708,53.1569,201.6439,122.1688,237.9468,0,U,69353,999,330,.99320802E-3,.200623E-2,0
STARLINK-37652,2026-123B,2026-06-25T06:22:05.204928,15.80940328,.00014407,53.1570,201.3356,104.4617,255.6566,0,U,69354,999,331,.98577748E-3,.199028E-2,0
STARLINK-37593,2026-123C,2026-06-25T06:20:50.051616,15.80946040,.00013761,53.1569,201.3295,90.8878,269.2303,0,U,69355,999,331,.10584187E-2,.214181E-2,0
STARLINK-37597,2026-123D,2026-06-24T09:05:54.799872,15.79381939,.00023389,53.1569,205.7629,75.8290,284.2992,0,U,69356,999,317,.17617196E-2,.337164E-2,0
STARLINK-37598,2026-123E,2026-06-25T06:15:28.027584,15.80937643,.00012007,53.1573,201.3041,103.6843,256.4313,0,U,69357,999,331,.88259573E-3,.177655E-2,0
STARLINK-37602,2026-123F,2026-06-25T05:34:03.602496,15.75303980,.00012238,53.1585,201.8508,115.8191,244.2956,0,U,69358,999,330,.1267058E-2,.198779E-2,0
STARLINK-37600,2026-123G,2026-06-25T06:59:21.002784,15.75288829,.00009822,53.1578,201.5078,112.1342,247.9783,0,U,69359,999,331,.10300169E-2,.160631E-2,0
STARLINK-37599,2026-123H,2026-06-25T06:00:31.743360,15.80956853,.00009558,53.1567,201.2335,107.2892,252.8235,0,U,69360,999,331,.11091001E-2,.224864E-2,0
STARLINK-37039,2026-123J,2026-06-25T06:00:02.000160,15.75304159,.00012439,53.1597,201.4438,85.8930,171.0438,0,U,69361,999,445,-.88473342E-3,-.134508E-2,0
STARLINK-37040,2026-123K,2026-06-25T05:39:52.007040,15.80981335,.00013888,53.1572,201.1364,127.4559,232.6590,0,U,69362,999,331,.14970637E-2,.30705E-2,0
