[{"id":"69333","name":"STARLINK-37818","tle1":"1 69333U 26122E   26176.25002315 -.00297272  00000+0 -56450-2 0  9999","tle2":"2 69333  97.2850 205.9308 0000833  81.7637  10.3551 15.49330699  4648"},{"id":"69334","name":"STARLINK-37868","tle1":"1 69334U 26122F   26176.25002315 -.00003239  00000+0 -57968-4 0  9995","tle2":"2 69334  97.2851 206.0069 0001997  78.5003 196.9217 15.49159809  4641"},{"id":"69335","name":"STARLINK-37877","tle1":"1 69335U 26122G   26176.25002315  .00020410  00000+0  37636-3 0  9993","tle2":"2 69335  97.2853 205.8734 0001276  92.9539 223.3335 15.49159016  4640"},{"id":"69336","name":"STARLINK-37791","tle1":"1 69336U 26122H   26176.25002315  .00015508  00000+0  28667-3 0  9990","tle2":"2 69336  97.2850 205.9527 0001635  92.7846  49.3753 15.49144957  4645"},{"id":"69337","name":"STARLINK-37765","tle1":"1 69337U 26122J   26176.25002315 -.02594903  00000+0 -53711-1 0  9992","tle2":"2 69337  97.2850 206.0645 0001189  83.5253 316.6079 15.49362210  4693"},{"id":"69338","name":"STARLINK-37788","tle1":"1 69338U 26122K   26176.25002315 -.00001176  00000+0 -19980-4 0  9999","tle2":"2 69338  97.2854 205.8683 0000562  86.9110 218.6310 15.49159059  4649"},{"id":"69339","name":"STARLINK-37743","tle1":"1 69339U 26122L   26176.25002315 -.00005788  00000+0 -10493-3 0  9992","tle2":"2 69339  97.2853 205.9390 0000892 100.3943  13.7001 15.49162804  4649"},{"id":"69340","name":"STARLINK-37780","tle1":"1 69340U 26122M   26176.25002315 -.00010265  00000+0 -18751-3 0  9995","tle2":"2 69340  97.2851 205.9876 0001357  88.2957 137.9594 15.49160571  4694"},{"id":"69341","name":"STARLINK-37781","tle1":"1 69341U 26122N   26176.25002315  .00007054  00000+0  13137-3 0  9999","tle2":"2 69341  97.2856 205.8651 0000753  97.8735 201.1532 15.49162198  4647"},{"id":"69342","name":"STARLINK-37782","tle1":"1 69342U 26122P   26176.25002315  .00006992  00000+0  13018-3 0  9998","tle2":"2 69342  97.2848 206.0383 0001441  67.7179 273.7595 15.49171738  4641"},{"id":"69343","name":"STARLINK-37776","tle1":"1 69343U 26122Q   26176.25002315  .00019276  00000+0  35516-3 0  9995","tle2":"2 69343  97.2849 206.0313 0000731 110.5800 213.3698 15.49193969  4649"},{"id":"69344","name":"STARLINK-37786","tle1":"1 69344U 26122R   26176.25002315  .00002354  00000+0  44965-4 0  9994","tle2":"2 69344  97.2848 205.9561 0001139  89.8355  59.0455 15.49168934  4648"},{"id":"69345","name":"STARLINK-37785","tle1":"1 69345U 26122S   26176.25002315  .00027363  00000+0  50350-3 0  9996","tle2":"2 69345  97.2853 206.0360 0000997  54.5268 279.7671 15.49163036  4646"},{"id":"69346","name":"STARLINK-37773","tle1":"1 69346U 26122T   26176.25002315 -.00209897  00000+0 -39452-2 0  9992","tle2":"2 69346  97.2849 205.9862 0001580 108.1422 113.1180 15.49304103  4697"},{"id":"69347","name":"STARLINK-37744","tle1":"1 69347U 26122U   26176.25002315  .00011767  00000+0  21790-3 0  9995","tle2":"2 69347  97.2853 205.8762 0000477  88.2667 233.4287 15.49162868  4643"},{"id":"69348","name":"STARLINK-37775","tle1":"1 69348U 26122V   26176.25002315 -.00003930  00000+0 -70677-4 0  9990","tle2":"2 69348  97.2849 205.9871 0001384  95.5627 127.6704 15.49169096  4644"},{"id":"69349","name":"STARLINK-37777","tle1":"1 69349U 26122W   26176.25002315 -.00002942  00000+0 -52487-4 0  9992","tle2":"2 69349  97.2850 205.9894 0001005  90.3956 138.3413 15.49168859  4642"},{"id":"69350","name":"STARLINK-37779","tle1":"1 69350U 26122X   26176.25002315 -.00002144  00000+0 -37814-4 0  9995","tle2":"2 69350  97.2851 206.0253 0001267  83.4465 229.5084 15.49160557  4648"},{"id":"69351","name":"STARLINK-37549","tle1":"1 69351U 26122Y   26176.25002315  .00019770  00000+0  36502-3 0  9999","tle2":"2 69351  97.2854 205.9314 0001522  95.3145 353.5376 15.49128328  4641"},{"id":"69352","name":"STARLINK-37778","tle1":"1 69352U 26122Z   26176.25002315  .00015565  00000+0  28759-3 0  9993","tle2":"2 69352  97.2854 205.9497 0001226  88.8190  44.3034 15.49158227  4649"},{"id":"69353","name":"STARLINK-37651","tle1":"1 69353U 26123A   26176.20097843  .00200623  00000+0  99321-3 0  9994","tle2":"2 69353  53.1569 201.6439 0001370 122.1688 237.9468 15.80945945  3306"},{"id":"69354","name":"STARLINK-37652","tle1":"1 69354U 26123B   26176.26533802  .00199028  00000+0  98578-3 0  9990","tle2":"2 69354  53.1570 201.3356 0001440 104.4617 255.6566 15.80940328  3314"},{"id":"69355","name":"STARLINK-37593","tle1":"1 69355U 26123C   26176.26446819  .00214181  00000+0  10584-2 0  9990","tle2":"2 69355  53.1569 201.3295 0001376  90.8878 269.2303 15.80946040  3317"},{"id":"69356","name":"STARLINK-37597","tle1":"1 69356U 26123D   26175.37910648  .00337164  00000+0  17617-2 0  9999","tle2":"2 69356  53.1569 205.7629 0002338  75.8290 284.2992 15.79381939  3170"},{"id":"69357","name":"STARLINK-37598","tle1":"1 69357U 26123E   26176.26074106  .00177655  00000+0  88260-3 0  9999","tle2":"2 69357  53.1573 201.3041 0001200 103.6843 256.4313 15.80937643  3312"},{"id":"69358","name":"STARLINK-37602","tle1":"1 69358U 26123F   26176.23198614  .00198779  00000+0  12671-2 0  9990","tle2":"2 69358  53.1585 201.8508 0001223 115.8191 244.2956 15.75303980  3307"},{"id":"69359","name":"STARLINK-37600","tle1":"1 69359U 26123G   26176.29121531  .00160631  00000+0  10300-2 0  9994","tle2":"2 69359  53.1578 201.5078 0000982 112.1342 247.9783 15.75288829  3311"},{"id":"69360","name":"STARLINK-37599","tle1":"1 69360U 26123H   26176.25036740  .00224864  00000+0  11091-2 0  9996","tle2":"2 69360  53.1567 201.2335 0000955 107.2892 252.8235 15.80956853  3311"},{"id":"69361","name":"STARLINK-37039","tle1":"1 69361U 26123J   26176.25002315 -.00134508  00000+0 -88473-3 0  9994","tle2":"2 69361  53.1597 201.4438 0001243  85.8930 171.0438 15.75304159  4459"},{"id":"69362","name":"STARLINK-37040","tle1":"1 69362U 26123K   26176.23601860  .00307050  00000+0  14971-2 0  9996","tle2":"2 69362  53.1572 201.1364 0001388 127.4559 232.6590 15.80981335  3318"}]